[{"OBJECT_NAME":"FLOCK 4BE-34","OBJECT_ID":"2024-149AD","EPOCH":"2026-03-04T04:28:02.510688","MEAN_MOTION":15.37750655,"ECCENTRICITY":0.0002307,"INCLINATION":97.3833,"RA_OF_ASC_NODE":146.7524,"ARG_OF_PERICENTER":290.9477,"MEAN_ANOMALY":69.1521,"EPHEMERIS_TYPE":0,"CLASSIFICATION_TYPE":"U","NORAD_CAT_ID":60495,"ELEMENT_SET_NO":999,"REV_AT_EPOCH":8617,"BSTAR":0.00071499,"MEAN_MOTION_DOT":0.00026491,"MEAN_MOTION_DDOT":0},{"OBJECT_NAME":"FLOCK 4BE-32","OBJECT_ID":"2024-149AF","EPOCH":"2026-03-04T03:22:49.975680","MEAN_MOTION":15.38191212,"ECCENTRICITY":0.0002644,"INCLINATION":97.3774,"RA_OF_ASC_NODE":146.2134,"ARG_OF_PERICENTER":289.6012,"MEAN_ANOMALY":70.4948,"EPHEMERIS_TYPE":0,"CLASSIFICATION_TYPE":"U","NORAD_CAT_ID":60497,"ELEMENT_SET_NO":999,"REV_AT_EPOCH":8616,"BSTAR":0.00078652,"MEAN_MOTION_DOT":0.00029581,"MEAN_MOTION_DDOT":0},{"OBJECT_NAME":"FLOCK 4BE-30","OBJECT_ID":"2024-149AH","EPOCH":"2026-03-04T03:37:58.414656","MEAN_MOTION":15.38019902,"ECCENTRICITY":0.0002023,"INCLINATION":97.3855,"RA_OF_ASC_NODE":146.7815,"ARG_OF_PERICENTER":292.0603,"MEAN_ANOMALY":68.0427,"EPHEMERIS_TYPE":0,"CLASSIFICATION_TYPE":"U","NORAD_CAT_ID":60499,"ELEMENT_SET_NO":999,"REV_AT_EPOCH":8554,"BSTAR":0.00072883,"MEAN_MOTION_DOT":0.00027244,"MEAN_MOTION_DDOT":0},{"OBJECT_NAME":"FLOCK 4BE-11","OBJECT_ID":"2024-149AK","EPOCH":"2026-03-04T04:36:50.937408","MEAN_MOTION":15.39013801,"ECCENTRICITY":0.0003055,"INCLINATION":97.3757,"RA_OF_ASC_NODE":146.3903,"ARG_OF_PERICENTER":289.955,"MEAN_ANOMALY":70.1366,"EPHEMERIS_TYPE":0,"CLASSIFICATION_TYPE":"U","NORAD_CAT_ID":60501,"ELEMENT_SET_NO":999,"REV_AT_EPOCH":8618,"BSTAR":0.00085106,"MEAN_MOTION_DOT":0.00032899,"MEAN_MOTION_DDOT":0},{"OBJECT_NAME":"FLOCK 4BE-24","OBJECT_ID":"2024-149AP","EPOCH":"2026-03-04T04:09:39.961152","MEAN_MOTION":15.38877718,"ECCENTRICITY":0.0002919,"INCLINATION":97.3772,"RA_OF_ASC_NODE":146.6176,"ARG_OF_PERICENTER":300.0043,"MEAN_ANOMALY":60.0912,"EPHEMERIS_TYPE":0,"CLASSIFICATION_TYPE":"U","NORAD_CAT_ID":60505,"ELEMENT_SET_NO":999,"REV_AT_EPOCH":8619,"BSTAR":0.00079438,"MEAN_MOTION_DOT":0.00030556,"MEAN_MOTION_DDOT":0},{"OBJECT_NAME":"TANAGER-1","OBJECT_ID":"2024-149AR","EPOCH":"2026-03-03T19:03:13.772160","MEAN_MOTION":15.43580999,"ECCENTRICITY":0.0006983,"INCLINATION":97.3804,"RA_OF_ASC_NODE":156.0902,"ARG_OF_PERICENTER":223.1382,"MEAN_ANOMALY":136.9319,"EPHEMERIS_TYPE":0,"CLASSIFICATION_TYPE":"U","NORAD_CAT_ID":60507,"ELEMENT_SET_NO":999,"REV_AT_EPOCH":8677,"BSTAR":0.00012916,"MEAN_MOTION_DOT":5.718e-5,"MEAN_MOTION_DDOT":0},{"OBJECT_NAME":"FLOCK 4BE-29","OBJECT_ID":"2024-149AT","EPOCH":"2026-03-04T04:54:38.090592","MEAN_MOTION":15.40144487,"ECCENTRICITY":0.0002011,"INCLINATION":97.3857,"RA_OF_ASC_NODE":147.7793,"ARG_OF_PERICENTER":319.5331,"MEAN_ANOMALY":40.5765,"EPHEMERIS_TYPE":0,"CLASSIFICATION_TYPE":"U","NORAD_CAT_ID":60509,"ELEMENT_SET_NO":999,"REV_AT_EPOCH":8623,"BSTAR":0.00083286,"MEAN_MOTION_DOT":0.00033408,"MEAN_MOTION_DDOT":0},{"OBJECT_NAME":"FLOCK 4BE-2","OBJECT_ID":"2024-149AV","EPOCH":"2026-03-04T04:21:37.763712","MEAN_MOTION":15.42621435,"ECCENTRICITY":0.0002659,"INCLINATION":97.3859,"RA_OF_ASC_NODE":148.3129,"ARG_OF_PERICENTER":296.9873,"MEAN_ANOMALY":63.1102,"EPHEMERIS_TYPE":0,"CLASSIFICATION_TYPE":"U","NORAD_CAT_ID":60511,"ELEMENT_SET_NO":999,"REV_AT_EPOCH":8626,"BSTAR":0.0014703,"MEAN_MOTION_DOT":0.00064348,"MEAN_MOTION_DDOT":0},{"OBJECT_NAME":"FLOCK 4BE-13","OBJECT_ID":"2024-149AW","EPOCH":"2026-03-03T18:55:12.322848","MEAN_MOTION":15.38544691,"ECCENTRICITY":0.0003431,"INCLINATION":97.3774,"RA_OF_ASC_NODE":146.3335,"ARG_OF_PERICENTER":291.8988,"MEAN_ANOMALY":68.1892,"EPHEMERIS_TYPE":0,"CLASSIFICATION_TYPE":"U","NORAD_CAT_ID":60512,"ELEMENT_SET_NO":999,"REV_AT_EPOCH":8614,"BSTAR":0.0006887,"MEAN_MOTION_DOT":0.00026181,"MEAN_MOTION_DDOT":0},{"OBJECT_NAME":"FLOCK 4BE-27","OBJECT_ID":"2024-149AX","EPOCH":"2026-03-04T03:18:50.287392","MEAN_MOTION":15.32442235,"ECCENTRICITY":0.0003005,"INCLINATION":97.388,"RA_OF_ASC_NODE":145.0729,"ARG_OF_PERICENTER":334.1917,"MEAN_ANOMALY":25.9175,"EPHEMERIS_TYPE":0,"CLASSIFICATION_TYPE":"U","NORAD_CAT_ID":60513,"ELEMENT_SET_NO":999,"REV_AT_EPOCH":8604,"BSTAR":0.0004934,"MEAN_MOTION_DOT":0.00015393,"MEAN_MOTION_DDOT":0},{"OBJECT_NAME":"FLOCK 4BE-9","OBJECT_ID":"2024-149AY","EPOCH":"2026-03-04T03:49:51.524832","MEAN_MOTION":15.37355049,"ECCENTRICITY":0.0001707,"INCLINATION":97.3843,"RA_OF_ASC_NODE":146.6604,"ARG_OF_PERICENTER":329.6271,"MEAN_ANOMALY":30.4874,"EPHEMERIS_TYPE":0,"CLASSIFICATION_TYPE":"U","NORAD_CAT_ID":60514,"ELEMENT_SET_NO":999,"REV_AT_EPOCH":8616,"BSTAR":0.00066748,"MEAN_MOTION_DOT":0.00024403,"MEAN_MOTION_DDOT":0},{"OBJECT_NAME":"FLOCK 4BE-6","OBJECT_ID":"2024-149BA","EPOCH":"2026-03-03T18:56:15.069984","MEAN_MOTION":15.36383035,"ECCENTRICITY":0.0002354,"INCLINATION":97.3846,"RA_OF_ASC_NODE":145.8218,"ARG_OF_PERICENTER":320.7118,"MEAN_ANOMALY":39.3955,"EPHEMERIS_TYPE":0,"CLASSIFICATION_TYPE":"U","NORAD_CAT_ID":60516,"ELEMENT_SET_NO":999,"REV_AT_EPOCH":8607,"BSTAR":0.0005899,"MEAN_MOTION_DOT":0.00020884,"MEAN_MOTION_DDOT":0},{"OBJECT_NAME":"FLOCK 4BE-14","OBJECT_ID":"2024-149BB","EPOCH":"2026-03-03T19:00:03.483072","MEAN_MOTION":15.3742222,"ECCENTRICITY":0.0003239,"INCLINATION":97.3759,"RA_OF_ASC_NODE":145.8943,"ARG_OF_PERICENTER":316.4246,"MEAN_ANOMALY":43.6742,"EPHEMERIS_TYPE":0,"CLASSIFICATION_TYPE":"U","NORAD_CAT_ID":60517,"ELEMENT_SET_NO":999,"REV_AT_EPOCH":8611,"BSTAR":0.00062259,"MEAN_MOTION_DOT":0.00022804,"MEAN_MOTION_DDOT":0},{"OBJECT_NAME":"FLOCK 4BE-1","OBJECT_ID":"2024-149BC","EPOCH":"2026-03-04T04:02:26.768832","MEAN_MOTION":15.38702415,"ECCENTRICITY":0.0003127,"INCLINATION":97.3831,"RA_OF_ASC_NODE":147.2007,"ARG_OF_PERICENTER":310.6203,"MEAN_ANOMALY":49.477,"EPHEMERIS_TYPE":0,"CLASSIFICATION_TYPE":"U","NORAD_CAT_ID":60518,"ELEMENT_SET_NO":999,"REV_AT_EPOCH":8620,"BSTAR":0.00076768,"MEAN_MOTION_DOT":0.00029354,"MEAN_MOTION_DDOT":0},{"OBJECT_NAME":"FLOCK 4BE-28","OBJECT_ID":"2024-149BD","EPOCH":"2026-03-04T04:50:43.212192","MEAN_MOTION":15.40705131,"ECCENTRICITY":0.0003546,"INCLINATION":97.3794,"RA_OF_ASC_NODE":147.654,"ARG_OF_PERICENTER":310.6024,"MEAN_ANOMALY":49.4913,"EPHEMERIS_TYPE":0,"CLASSIFICATION_TYPE":"U","NORAD_CAT_ID":60519,"ELEMENT_SET_NO":999,"REV_AT_EPOCH":8625,"BSTAR":0.00084519,"MEAN_MOTION_DOT":0.00034545,"MEAN_MOTION_DDOT":0},{"OBJECT_NAME":"FLOCK 4BE-35","OBJECT_ID":"2024-149CU","EPOCH":"2026-03-04T04:42:49.863744","MEAN_MOTION":15.42467708,"ECCENTRICITY":0.000456,"INCLINATION":97.3803,"RA_OF_ASC_NODE":146.3689,"ARG_OF_PERICENTER":276.1991,"MEAN_ANOMALY":83.8737,"EPHEMERIS_TYPE":0,"CLASSIFICATION_TYPE":"U","NORAD_CAT_ID":60558,"ELEMENT_SET_NO":999,"REV_AT_EPOCH":8615,"BSTAR":0.002906,"MEAN_MOTION_DOT":0.00127683,"MEAN_MOTION_DDOT":0},{"OBJECT_NAME":"FLOCK 4BE-5","OBJECT_ID":"2024-149CV","EPOCH":"2026-03-04T04:37:36.956640","MEAN_MOTION":15.36740494,"ECCENTRICITY":0.0002566,"INCLINATION":97.3891,"RA_OF_ASC_NODE":146.4292,"ARG_OF_PERICENTER":319.4355,"MEAN_ANOMALY":40.6698,"EPHEMERIS_TYPE":0,"CLASSIFICATION_TYPE":"U","NORAD_CAT_ID":60559,"ELEMENT_SET_NO":999,"REV_AT_EPOCH":8613,"BSTAR":0.00086165,"MEAN_MOTION_DOT":0.00030936,"MEAN_MOTION_DDOT":0}]
