FLOCK 4BE-34            
1 60495U 24149AD  26063.18614017  .00026491  00000+0  71499-3 0  9993
2 60495  97.3833 146.7524 0002307 290.9477  69.1521 15.37750655 86178
FLOCK 4BE-32            
1 60497U 24149AF  26063.14085620  .00029581  00000+0  78652-3 0  9994
2 60497  97.3774 146.2134 0002644 289.6012  70.4948 15.38191212 86166
FLOCK 4BE-30            
1 60499U 24149AH  26063.15137054  .00027244  00000+0  72883-3 0  9990
2 60499  97.3855 146.7815 0002023 292.0603  68.0427 15.38019902 85545
FLOCK 4BE-11            
1 60501U 24149AK  26063.19225622  .00032899  00000+0  85106-3 0  9991
2 60501  97.3757 146.3903 0003055 289.9550  70.1366 15.39013801 86186
FLOCK 4BE-24            
1 60505U 24149AP  26063.17337918  .00030556  00000+0  79438-3 0  9994
2 60505  97.3772 146.6176 0002919 300.0043  60.0912 15.38877718 86192
TANAGER-1               
1 60507U 24149AR  26062.79390940  .00005718  00000+0  12916-3 0  9997
2 60507  97.3804 156.0902 0006983 223.1382 136.9319 15.43580999 86774
FLOCK 4BE-29            
1 60509U 24149AT  26063.20460753  .00033408  00000+0  83286-3 0  9991
2 60509  97.3857 147.7793 0002011 319.5331  40.5765 15.40144487 86232
FLOCK 4BE-2             
1 60511U 24149AV  26063.18168708  .00064348  00000+0  14703-2 0  9990
2 60511  97.3859 148.3129 0002659 296.9873  63.1102 15.42621435 86268
FLOCK 4BE-13            
1 60512U 24149AW  26062.78833707  .00026181  00000+0  68870-3 0  9992
2 60512  97.3774 146.3335 0003431 291.8988  68.1892 15.38544691 86143
FLOCK 4BE-27            
1 60513U 24149AX  26063.13808203  .00015393  00000+0  49340-3 0  9990
2 60513  97.3880 145.0729 0003005 334.1917  25.9175 15.32442235 86044
FLOCK 4BE-9             
1 60514U 24149AY  26063.15962413  .00024403  00000+0  66748-3 0  9990
2 60514  97.3843 146.6604 0001707 329.6271  30.4874 15.37355049 86163
FLOCK 4BE-6             
1 60516U 24149BA  26062.78906331  .00020884  00000+0  58990-3 0  9996
2 60516  97.3846 145.8218 0002354 320.7118  39.3955 15.36383035 86074
FLOCK 4BE-14            
1 60517U 24149BB  26062.79170698  .00022804  00000+0  62259-3 0  9994
2 60517  97.3759 145.8943 0003239 316.4246  43.6742 15.37422220 86118
FLOCK 4BE-1             
1 60518U 24149BC  26063.16836538  .00029354  00000+0  76768-3 0  9996
2 60518  97.3831 147.2007 0003127 310.6203  49.4770 15.38702415 86205
FLOCK 4BE-28            
1 60519U 24149BD  26063.20188903  .00034545  00000+0  84519-3 0  9999
2 60519  97.3794 147.6540 0003546 310.6024  49.4913 15.40705131 86251
FLOCK 4BE-35            
1 60558U 24149CU  26063.19641046  .00127683  00000+0  29060-2 0  9997
2 60558  97.3803 146.3689 0004560 276.1991  83.8737 15.42467708 86153
FLOCK 4BE-5             
1 60559U 24149CV  26063.19278885  .00030936  00000+0  86165-3 0  9999
2 60559  97.3891 146.4292 0002566 319.4355  40.6698 15.36740494 86135
